{
    "links": {
        "self": "http://www.neowsapp.com/rest/v1/neo/3596263?api_key=iIulBulltgU6a56xZRHN4H3l9WmuAYTsLGpBGhQ2"
    },
    "id": "3596263",
    "neo_reference_id": "3596263",
    "name": "(2012 BZ34)",
    "designation": "2012 BZ34",
    "nasa_jpl_url": "http://ssd.jpl.nasa.gov/sbdb.cgi?sstr=3596263",
    "absolute_magnitude_h": 22.4,
    "estimated_diameter": {
        "kilometers": {
            "estimated_diameter_min": 0.0880146521,
            "estimated_diameter_max": 0.1968067451
        },
        "meters": {
            "estimated_diameter_min": 88.0146520901,
            "estimated_diameter_max": 196.8067450894
        },
        "miles": {
            "estimated_diameter_min": 0.0546897524,
            "estimated_diameter_max": 0.122290004
        },
        "feet": {
            "estimated_diameter_min": 288.7619911632,
            "estimated_diameter_max": 645.6914415591
        }
    },
    "is_potentially_hazardous_asteroid": false,
    "close_approach_data": [
        {
            "close_approach_date": "2012-01-16",
            "close_approach_date_full": "2012-Jan-16 17:33",
            "epoch_date_close_approach": 1326735180000,
            "relative_velocity": {
                "kilometers_per_second": "15.8980384428",
                "kilometers_per_hour": "57232.9383940152",
                "miles_per_hour": "35562.3221926591"
            },
            "miss_distance": {
                "astronomical": "0.2811909315",
                "lunar": "109.3832723535",
                "kilometers": "42065564.415715905",
                "miles": "26138329.677473289"
            },
            "orbiting_body": "Earth"
        }
    ],
    "orbital_data": {
        "orbit_id": "8",
        "orbit_determination_date": "2017-04-06 08:51:16",
        "first_observation_date": "2012-01-24",
        "last_observation_date": "2012-02-04",
        "data_arc_in_days": 11,
        "observations_used": 33,
        "orbit_uncertainty": "8",
        "minimum_orbit_intersection": ".269278",
        "jupiter_tisserand_invariant": "3.968",
        "epoch_osculation": "2455953.5",
        "eccentricity": ".3676088263738386",
        "semi_major_axis": "1.711451622985073",
        "inclination": "29.54908542276647",
        "ascending_node_longitude": "128.2284307597618",
        "orbital_period": "817.7967273401679",
        "perihelion_distance": "1.082306900463929",
        "perihelion_argument": "291.6140171084987",
        "aphelion_distance": "2.340596345506217",
        "perihelion_time": "2455880.912218747008",
        "mean_anomaly": "31.95366327286305",
        "mean_motion": ".4402071908148584",
        "equinox": "J2000",
        "orbit_class": {
            "orbit_class_type": "AMO",
            "orbit_class_description": "Near-Earth asteroid orbits similar to that of 1221 Amor",
            "orbit_class_range": "1.017 AU < q (perihelion) < 1.3 AU"
        }
    },
    "is_sentry_object": false
}